<?xml version="1.0" encoding="UTF-8"?>
<ndm xmlns:xsi="http://www.w3.org/2001/XMLSchema-instance" xsi:noNamespaceSchemaLocation="https://sanaregistry.org/r/ndmxml_unqualified/ndmxml-2.0.0-master-2.0.xsd">
<omm id="CCSDS_OMM_VERS" version="2.0">
<header><CREATION_DATE/><ORIGINATOR/></header><body><segment><metadata><OBJECT_NAME>ORBCOMM FM05 [-]</OBJECT_NAME><OBJECT_ID>1997-084F</OBJECT_ID><CENTER_NAME>EARTH</CENTER_NAME><REF_FRAME>TEME</REF_FRAME><TIME_SYSTEM>UTC</TIME_SYSTEM><MEAN_ELEMENT_THEORY>SGP4</MEAN_ELEMENT_THEORY></metadata><data><meanElements><EPOCH>2024-02-27T11:16:17.632128</EPOCH><MEAN_MOTION>14.42242206</MEAN_MOTION><ECCENTRICITY>.0002912</ECCENTRICITY><INCLINATION>45.0146</INCLINATION><RA_OF_ASC_NODE>125.3834</RA_OF_ASC_NODE><ARG_OF_PERICENTER>310.2860</ARG_OF_PERICENTER><MEAN_ANOMALY>49.7735</MEAN_ANOMALY></meanElements><tleParameters><EPHEMERIS_TYPE>0</EPHEMERIS_TYPE><CLASSIFICATION_TYPE>U</CLASSIFICATION_TYPE><NORAD_CAT_ID>25117</NORAD_CAT_ID><ELEMENT_SET_NO>999</ELEMENT_SET_NO><REV_AT_EPOCH>37184</REV_AT_EPOCH><BSTAR>.68588E-3</BSTAR><MEAN_MOTION_DOT>.2139E-4</MEAN_MOTION_DOT><MEAN_MOTION_DDOT>0</MEAN_MOTION_DDOT></tleParameters></data></segment></body></omm>
<omm id="CCSDS_OMM_VERS" version="2.0">
<header><CREATION_DATE/><ORIGINATOR/></header><body><segment><metadata><OBJECT_NAME>ORBCOMM FM06 [+]</OBJECT_NAME><OBJECT_ID>1997-084G</OBJECT_ID><CENTER_NAME>EARTH</CENTER_NAME><REF_FRAME>TEME</REF_FRAME><TIME_SYSTEM>UTC</TIME_SYSTEM><MEAN_ELEMENT_THEORY>SGP4</MEAN_ELEMENT_THEORY></metadata><data><meanElements><EPOCH>2024-02-27T12:02:10.533120</EPOCH><MEAN_MOTION>14.42241024</MEAN_MOTION><ECCENTRICITY>.0002119</ECCENTRICITY><INCLINATION>45.0137</INCLINATION><RA_OF_ASC_NODE>125.4124</RA_OF_ASC_NODE><ARG_OF_PERICENTER>302.7568</ARG_OF_PERICENTER><MEAN_ANOMALY>72.2320</MEAN_ANOMALY></meanElements><tleParameters><EPHEMERIS_TYPE>0</EPHEMERIS_TYPE><CLASSIFICATION_TYPE>U</CLASSIFICATION_TYPE><NORAD_CAT_ID>25118</NORAD_CAT_ID><ELEMENT_SET_NO>999</ELEMENT_SET_NO><REV_AT_EPOCH>37276</REV_AT_EPOCH><BSTAR>.76735E-3</BSTAR><MEAN_MOTION_DOT>.2411E-4</MEAN_MOTION_DOT><MEAN_MOTION_DDOT>0</MEAN_MOTION_DDOT></tleParameters></data></segment></body></omm>
<omm id="CCSDS_OMM_VERS" version="2.0">
<header><CREATION_DATE/><ORIGINATOR/></header><body><segment><metadata><OBJECT_NAME>ORBCOMM FM07 [-]</OBJECT_NAME><OBJECT_ID>1997-084H</OBJECT_ID><CENTER_NAME>EARTH</CENTER_NAME><REF_FRAME>TEME</REF_FRAME><TIME_SYSTEM>UTC</TIME_SYSTEM><MEAN_ELEMENT_THEORY>SGP4</MEAN_ELEMENT_THEORY></metadata><data><meanElements><EPOCH>2024-02-27T11:39:58.701312</EPOCH><MEAN_MOTION>14.42170857</MEAN_MOTION><ECCENTRICITY>.0003822</ECCENTRICITY><INCLINATION>45.0133</INCLINATION><RA_OF_ASC_NODE>125.9833</RA_OF_ASC_NODE><ARG_OF_PERICENTER>308.7914</ARG_OF_PERICENTER><MEAN_ANOMALY>51.2594</MEAN_ANOMALY></meanElements><tleParameters><EPHEMERIS_TYPE>0</EPHEMERIS_TYPE><CLASSIFICATION_TYPE>U</CLASSIFICATION_TYPE><NORAD_CAT_ID>25119</NORAD_CAT_ID><ELEMENT_SET_NO>999</ELEMENT_SET_NO><REV_AT_EPOCH>37275</REV_AT_EPOCH><BSTAR>.71436E-3</BSTAR><MEAN_MOTION_DOT>.2231E-4</MEAN_MOTION_DOT><MEAN_MOTION_DDOT>0</MEAN_MOTION_DDOT></tleParameters></data></segment></body></omm>
<omm id="CCSDS_OMM_VERS" version="2.0">
<header><CREATION_DATE/><ORIGINATOR/></header><body><segment><metadata><OBJECT_NAME>ORBCOMM FM03 [-]</OBJECT_NAME><OBJECT_ID>1998-007B</OBJECT_ID><CENTER_NAME>EARTH</CENTER_NAME><REF_FRAME>TEME</REF_FRAME><TIME_SYSTEM>UTC</TIME_SYSTEM><MEAN_ELEMENT_THEORY>SGP4</MEAN_ELEMENT_THEORY></metadata><data><meanElements><EPOCH>2024-02-27T10:48:47.305728</EPOCH><MEAN_MOTION>14.31879486</MEAN_MOTION><ECCENTRICITY>.0047184</ECCENTRICITY><INCLINATION>107.9783</INCLINATION><RA_OF_ASC_NODE>240.1795</RA_OF_ASC_NODE><ARG_OF_PERICENTER>356.6810</ARG_OF_PERICENTER><MEAN_ANOMALY>3.4010</MEAN_ANOMALY></meanElements><tleParameters><EPHEMERIS_TYPE>0</EPHEMERIS_TYPE><CLASSIFICATION_TYPE>U</CLASSIFICATION_TYPE><NORAD_CAT_ID>25158</NORAD_CAT_ID><ELEMENT_SET_NO>999</ELEMENT_SET_NO><REV_AT_EPOCH>35588</REV_AT_EPOCH><BSTAR>.54667E-3</BSTAR><MEAN_MOTION_DOT>.1352E-4</MEAN_MOTION_DOT><MEAN_MOTION_DDOT>0</MEAN_MOTION_DDOT></tleParameters></data></segment></body></omm>
<omm id="CCSDS_OMM_VERS" version="2.0">
<header><CREATION_DATE/><ORIGINATOR/></header><body><segment><metadata><OBJECT_NAME>ORBCOMM FM04 [+]</OBJECT_NAME><OBJECT_ID>1998-007C</OBJECT_ID><CENTER_NAME>EARTH</CENTER_NAME><REF_FRAME>TEME</REF_FRAME><TIME_SYSTEM>UTC</TIME_SYSTEM><MEAN_ELEMENT_THEORY>SGP4</MEAN_ELEMENT_THEORY></metadata><data><meanElements><EPOCH>2024-02-27T10:51:16.621344</EPOCH><MEAN_MOTION>14.32135028</MEAN_MOTION><ECCENTRICITY>.0042825</ECCENTRICITY><INCLINATION>107.9769</INCLINATION><RA_OF_ASC_NODE>243.0725</RA_OF_ASC_NODE><ARG_OF_PERICENTER>354.2844</ARG_OF_PERICENTER><MEAN_ANOMALY>5.7801</MEAN_ANOMALY></meanElements><tleParameters><EPHEMERIS_TYPE>0</EPHEMERIS_TYPE><CLASSIFICATION_TYPE>U</CLASSIFICATION_TYPE><NORAD_CAT_ID>25159</NORAD_CAT_ID><ELEMENT_SET_NO>999</ELEMENT_SET_NO><REV_AT_EPOCH>35605</REV_AT_EPOCH><BSTAR>.59832E-3</BSTAR><MEAN_MOTION_DOT>.1497E-4</MEAN_MOTION_DOT><MEAN_MOTION_DDOT>0</MEAN_MOTION_DDOT></tleParameters></data></segment></body></omm>
<omm id="CCSDS_OMM_VERS" version="2.0">
<header><CREATION_DATE/><ORIGINATOR/></header><body><segment><metadata><OBJECT_NAME>ORBCOMM FM17 [-]</OBJECT_NAME><OBJECT_ID>1998-046A</OBJECT_ID><CENTER_NAME>EARTH</CENTER_NAME><REF_FRAME>TEME</REF_FRAME><TIME_SYSTEM>UTC</TIME_SYSTEM><MEAN_ELEMENT_THEORY>SGP4</MEAN_ELEMENT_THEORY></metadata><data><meanElements><EPOCH>2024-02-27T11:57:21.256416</EPOCH><MEAN_MOTION>14.32857658</MEAN_MOTION><ECCENTRICITY>.0003339</ECCENTRICITY><INCLINATION>44.9966</INCLINATION><RA_OF_ASC_NODE>338.5983</RA_OF_ASC_NODE><ARG_OF_PERICENTER>344.6888</ARG_OF_PERICENTER><MEAN_ANOMALY>15.3857</MEAN_ANOMALY></meanElements><tleParameters><EPHEMERIS_TYPE>0</EPHEMERIS_TYPE><CLASSIFICATION_TYPE>U</CLASSIFICATION_TYPE><NORAD_CAT_ID>25413</NORAD_CAT_ID><ELEMENT_SET_NO>999</ELEMENT_SET_NO><REV_AT_EPOCH>33489</REV_AT_EPOCH><BSTAR>.56412E-3</BSTAR><MEAN_MOTION_DOT>.1413E-4</MEAN_MOTION_DOT><MEAN_MOTION_DDOT>0</MEAN_MOTION_DDOT></tleParameters></data></segment></body></omm>
<omm id="CCSDS_OMM_VERS" version="2.0">
<header><CREATION_DATE/><ORIGINATOR/></header><body><segment><metadata><OBJECT_NAME>ORBCOMM FM18 [-]</OBJECT_NAME><OBJECT_ID>1998-046B</OBJECT_ID><CENTER_NAME>EARTH</CENTER_NAME><REF_FRAME>TEME</REF_FRAME><TIME_SYSTEM>UTC</TIME_SYSTEM><MEAN_ELEMENT_THEORY>SGP4</MEAN_ELEMENT_THEORY></metadata><data><meanElements><EPOCH>2024-02-27T20:08:35.802528</EPOCH><MEAN_MOTION>14.35523730</MEAN_MOTION><ECCENTRICITY>.0004312</ECCENTRICITY><INCLINATION>44.9929</INCLINATION><RA_OF_ASC_NODE>265.6030</RA_OF_ASC_NODE><ARG_OF_PERICENTER>53.5039</ARG_OF_PERICENTER><MEAN_ANOMALY>306.6204</MEAN_ANOMALY></meanElements><tleParameters><EPHEMERIS_TYPE>0</EPHEMERIS_TYPE><CLASSIFICATION_TYPE>U</CLASSIFICATION_TYPE><NORAD_CAT_ID>25414</NORAD_CAT_ID><ELEMENT_SET_NO>999</ELEMENT_SET_NO><REV_AT_EPOCH>33604</REV_AT_EPOCH><BSTAR>.60732E-3</BSTAR><MEAN_MOTION_DOT>.1623E-4</MEAN_MOTION_DOT><MEAN_MOTION_DDOT>0</MEAN_MOTION_DDOT></tleParameters></data></segment></body></omm>
<omm id="CCSDS_OMM_VERS" version="2.0">
<header><CREATION_DATE/><ORIGINATOR/></header><body><segment><metadata><OBJECT_NAME>ORBCOMM FM19 [+]</OBJECT_NAME><OBJECT_ID>1998-046C</OBJECT_ID><CENTER_NAME>EARTH</CENTER_NAME><REF_FRAME>TEME</REF_FRAME><TIME_SYSTEM>UTC</TIME_SYSTEM><MEAN_ELEMENT_THEORY>SGP4</MEAN_ELEMENT_THEORY></metadata><data><meanElements><EPOCH>2024-02-27T20:51:59.871744</EPOCH><MEAN_MOTION>14.35359916</MEAN_MOTION><ECCENTRICITY>.0003148</ECCENTRICITY><INCLINATION>44.9940</INCLINATION><RA_OF_ASC_NODE>266.7752</RA_OF_ASC_NODE><ARG_OF_PERICENTER>45.9201</ARG_OF_PERICENTER><MEAN_ANOMALY>328.5237</MEAN_ANOMALY></meanElements><tleParameters><EPHEMERIS_TYPE>0</EPHEMERIS_TYPE><CLASSIFICATION_TYPE>U</CLASSIFICATION_TYPE><NORAD_CAT_ID>25415</NORAD_CAT_ID><ELEMENT_SET_NO>999</ELEMENT_SET_NO><REV_AT_EPOCH>33604</REV_AT_EPOCH><BSTAR>.59817E-3</BSTAR><MEAN_MOTION_DOT>.159E-4</MEAN_MOTION_DOT><MEAN_MOTION_DDOT>0</MEAN_MOTION_DDOT></tleParameters></data></segment></body></omm>

</ndm>
