ORBCOMM FM05 [-]        
1 25117U 97084F   24058.46964852  .00002139  00000+0  68588-3 0  9999
2 25117  45.0146 125.3834 0002912 310.2860  49.7735 14.42242206371843
ORBCOMM FM06 [+]        
1 25118U 97084G   24058.50151080  .00002411  00000+0  76735-3 0  9992
2 25118  45.0137 125.4124 0002119 302.7568  72.2320 14.42241024372767
ORBCOMM FM07 [-]        
1 25119U 97084H   24058.48609608  .00002231  00000+0  71436-3 0  9997
2 25119  45.0133 125.9833 0003822 308.7914  51.2594 14.42170857372753
ORBCOMM FM03 [-]        
1 25158U 98007B   24058.45054752  .00001352  00000+0  54667-3 0  9997
2 25158 107.9783 240.1795 0047184 356.6810   3.4010 14.31879486355887
ORBCOMM FM04 [+]        
1 25159U 98007C   24058.45227571  .00001497  00000+0  59832-3 0  9998
2 25159 107.9769 243.0725 0042825 354.2844   5.7801 14.32135028356056
ORBCOMM FM17 [-]        
1 25413U 98046A   24058.49816269  .00001413  00000+0  56412-3 0  9995
2 25413  44.9966 338.5983 0003339 344.6888  15.3857 14.32857658334898
ORBCOMM FM18 [-]        
1 25414U 98046B   24058.83930327  .00001623  00000+0  60732-3 0  9999
2 25414  44.9929 265.6030 0004312  53.5039 306.6204 14.35523730336042
ORBCOMM FM19 [+]        
1 25415U 98046C   24058.86944296  .00001590  00000+0  59817-3 0  9998
2 25415  44.9940 266.7752 0003148  45.9201 328.5237 14.35359916336043
